IRIDIUM 119             
1 42959U 17061E   24155.04543088  .00000097  00000+0  27700-4 0  9998
2 42959  86.3961 336.2299 0001834  86.3323 273.8082 14.34214765348157
IRIDIUM 107             
1 42960U 17061F   24154.50630814  .00000138  00000+0  42367-4 0  9996
2 42960  86.3962 336.4722 0001860  92.5918 267.5490 14.34217720348080
IRIDIUM 132             
1 42961U 17061G   24155.48942812  .00000174  00000+0  55037-4 0  9997
2 42961  86.3959 336.0455 0001951  98.4275 261.7142 14.34213838348220
IRIDIUM 136             
1 42962U 17061H   24155.52113373  .00000145  00000+0  44738-4 0  9999
2 42962  86.3961 336.0356 0001923  82.0485 278.0929 14.34216294348240
IRIDIUM 139             
1 42963U 17061J   24155.03908710  .00000131  00000+0  39637-4 0  9990
2 42963  86.3963 336.2871 0001832  97.0466 263.0938 14.34216388348182
IRIDIUM 125             
1 42964U 17061K   24155.02640395  .00000130  00000+0  39278-4 0  9992
2 42964  86.3965 336.3399 0001682  85.2718 274.8670 14.34217102348192
IRIDIUM 135             
1 43070U 17083A   24155.41915734  .00000323  00000+0  10833-3 0  9999
2 43070  86.3966 272.8246 0002613  97.4533 262.6960 14.34216476337549
IRIDIUM 138             
1 43071U 17083B   24155.23522274  .00000455  00000+0  15550-3 0  9990
2 43071  86.3945 272.6187 0001980  87.6224 272.5199 14.34219402337505
